CCSDS_OMM_VERS = 2.0
CREATION_DATE  = 
ORIGINATOR     = 

OBJECT_NAME    = ISS OBJECT XW
OBJECT_ID      = 1998-067XW
CENTER_NAME    = EARTH
REF_FRAME      = TEME
TIME_SYSTEM    = UTC
MEAN_ELEMENT_THEORY = SGP/SGP4

EPOCH          = 2026-02-24T16:37:25.179456
MEAN_MOTION    = 15.65029958
ECCENTRICITY   = .00041151
INCLINATION    = 51.6247
RA_OF_ASC_NODE = 131.6079
ARG_OF_PERICENTER = 21.7395
MEAN_ANOMALY   = 338.3774

EPHEMERIS_TYPE = 0
CLASSIFICATION_TYPE = U
NORAD_CAT_ID   = 66910
ELEMENT_SET_NO = 999
REV_AT_EPOCH   = 1314
BSTAR          = .9621303E-3
MEAN_MOTION_DOT = .9714E-3
MEAN_MOTION_DDOT = 0

CCSDS_OMM_VERS = 2.0
CREATION_DATE  = 
ORIGINATOR     = 

OBJECT_NAME    = ISS OBJECT XX
OBJECT_ID      = 1998-067XX
CENTER_NAME    = EARTH
REF_FRAME      = TEME
TIME_SYSTEM    = UTC
MEAN_ELEMENT_THEORY = SGP/SGP4

EPOCH          = 2026-02-24T10:06:14.569344
MEAN_MOTION    = 15.69328988
ECCENTRICITY   = .00061695
INCLINATION    = 51.6222
RA_OF_ASC_NODE = 132.0369
ARG_OF_PERICENTER = 12.7164
MEAN_ANOMALY   = 347.3988

EPHEMERIS_TYPE = 0
CLASSIFICATION_TYPE = U
NORAD_CAT_ID   = 66911
ELEMENT_SET_NO = 999
REV_AT_EPOCH   = 1310
BSTAR          = .13669844E-2
MEAN_MOTION_DOT = .166127E-2
MEAN_MOTION_DDOT = 0

CCSDS_OMM_VERS = 2.0
CREATION_DATE  = 
ORIGINATOR     = 

OBJECT_NAME    = ISS OBJECT XY
OBJECT_ID      = 1998-067XY
CENTER_NAME    = EARTH
REF_FRAME      = TEME
TIME_SYSTEM    = UTC
MEAN_ELEMENT_THEORY = SGP/SGP4

EPOCH          = 2026-02-24T11:15:35.296128
MEAN_MOTION    = 15.61203953
ECCENTRICITY   = .00021285
INCLINATION    = 51.6273
RA_OF_ASC_NODE = 133.8770
ARG_OF_PERICENTER = 25.6563
MEAN_ANOMALY   = 334.4536

EPHEMERIS_TYPE = 0
CLASSIFICATION_TYPE = U
NORAD_CAT_ID   = 66912
ELEMENT_SET_NO = 999
REV_AT_EPOCH   = 1308
BSTAR          = .85008149E-3
MEAN_MOTION_DOT = .73537E-3
MEAN_MOTION_DDOT = 0

CCSDS_OMM_VERS = 2.0
CREATION_DATE  = 
ORIGINATOR     = 

OBJECT_NAME    = ISS OBJECT XZ
OBJECT_ID      = 1998-067XZ
CENTER_NAME    = EARTH
REF_FRAME      = TEME
TIME_SYSTEM    = UTC
MEAN_ELEMENT_THEORY = SGP/SGP4

EPOCH          = 2026-02-24T15:36:03.414528
MEAN_MOTION    = 15.50703079
ECCENTRICITY   = .00099204
INCLINATION    = 51.6307
RA_OF_ASC_NODE = 136.5843
ARG_OF_PERICENTER = 142.4717
MEAN_ANOMALY   = 217.6967

EPHEMERIS_TYPE = 0
CLASSIFICATION_TYPE = U
NORAD_CAT_ID   = 67683
ELEMENT_SET_NO = 999
REV_AT_EPOCH   = 276
BSTAR          = .57394039E-3
MEAN_MOTION_DOT = .33321E-3
MEAN_MOTION_DDOT = 0

CCSDS_OMM_VERS = 2.0
CREATION_DATE  = 
ORIGINATOR     = 

OBJECT_NAME    = GXIBA-1
OBJECT_ID      = 1998-067YA
CENTER_NAME    = EARTH
REF_FRAME      = TEME
TIME_SYSTEM    = UTC
MEAN_ELEMENT_THEORY = SGP/SGP4

EPOCH          = 2026-02-24T12:14:55.459104
MEAN_MOTION    = 15.52162735
ECCENTRICITY   = .00114058
INCLINATION    = 51.6305
RA_OF_ASC_NODE = 137.1526
ARG_OF_PERICENTER = 133.9104
MEAN_ANOMALY   = 226.2829

EPHEMERIS_TYPE = 0
CLASSIFICATION_TYPE = U
NORAD_CAT_ID   = 67684
ELEMENT_SET_NO = 999
REV_AT_EPOCH   = 274
BSTAR          = .10731364E-2
MEAN_MOTION_DOT = .66405E-3
MEAN_MOTION_DDOT = 0

CCSDS_OMM_VERS = 2.0
CREATION_DATE  = 
ORIGINATOR     = 

OBJECT_NAME    = CORAL
OBJECT_ID      = 1998-067YB
CENTER_NAME    = EARTH
REF_FRAME      = TEME
TIME_SYSTEM    = UTC
MEAN_ELEMENT_THEORY = SGP/SGP4

EPOCH          = 2026-02-24T12:27:40.496544
MEAN_MOTION    = 15.50934033
ECCENTRICITY   = .00118265
INCLINATION    = 51.6307
RA_OF_ASC_NODE = 137.2112
ARG_OF_PERICENTER = 138.3350
MEAN_ANOMALY   = 221.8542

EPHEMERIS_TYPE = 0
CLASSIFICATION_TYPE = U
NORAD_CAT_ID   = 67685
ELEMENT_SET_NO = 999
REV_AT_EPOCH   = 274
BSTAR          = .68366115E-3
MEAN_MOTION_DOT = .40179E-3
MEAN_MOTION_DDOT = 0

CCSDS_OMM_VERS = 2.0
CREATION_DATE  = 
ORIGINATOR     = 

OBJECT_NAME    = ISS OBJECT YC
OBJECT_ID      = 1998-067YC
CENTER_NAME    = EARTH
REF_FRAME      = TEME
TIME_SYSTEM    = UTC
MEAN_ELEMENT_THEORY = SGP/SGP4

EPOCH          = 2026-02-24T12:24:41.758272
MEAN_MOTION    = 15.51233940
ECCENTRICITY   = .00077298
INCLINATION    = 51.6312
RA_OF_ASC_NODE = 137.1991
ARG_OF_PERICENTER = 108.4650
MEAN_ANOMALY   = 251.7180

EPHEMERIS_TYPE = 0
CLASSIFICATION_TYPE = U
NORAD_CAT_ID   = 67686
ELEMENT_SET_NO = 999
REV_AT_EPOCH   = 274
BSTAR          = .76511481E-3
MEAN_MOTION_DOT = .45468E-3
MEAN_MOTION_DDOT = 0

CCSDS_OMM_VERS = 2.0
CREATION_DATE  = 
ORIGINATOR     = 

OBJECT_NAME    = LEOPARD
OBJECT_ID      = 1998-067YD
CENTER_NAME    = EARTH
REF_FRAME      = TEME
TIME_SYSTEM    = UTC
MEAN_ELEMENT_THEORY = SGP/SGP4

EPOCH          = 2026-02-24T17:07:13.113408
MEAN_MOTION    = 15.50835076
ECCENTRICITY   = .00077502
INCLINATION    = 51.6308
RA_OF_ASC_NODE = 136.2582
ARG_OF_PERICENTER = 112.1821
MEAN_ANOMALY   = 247.9991

EPHEMERIS_TYPE = 0
CLASSIFICATION_TYPE = U
NORAD_CAT_ID   = 67687
ELEMENT_SET_NO = 999
REV_AT_EPOCH   = 269
BSTAR          = .56751547E-3
MEAN_MOTION_DOT = .33074E-3
MEAN_MOTION_DDOT = 0

CCSDS_OMM_VERS = 2.0
CREATION_DATE  = 
ORIGINATOR     = 

OBJECT_NAME    = ISS OBJECT YE
OBJECT_ID      = 1998-067YE
CENTER_NAME    = EARTH
REF_FRAME      = TEME
TIME_SYSTEM    = UTC
MEAN_ELEMENT_THEORY = SGP/SGP4

EPOCH          = 2026-02-24T12:25:57.532800
MEAN_MOTION    = 15.51094294
ECCENTRICITY   = .00076334
INCLINATION    = 51.6313
RA_OF_ASC_NODE = 137.2046
ARG_OF_PERICENTER = 108.8035
MEAN_ANOMALY   = 251.3783

EPHEMERIS_TYPE = 0
CLASSIFICATION_TYPE = U
NORAD_CAT_ID   = 67688
ELEMENT_SET_NO = 999
REV_AT_EPOCH   = 266
BSTAR          = .71566111E-3
MEAN_MOTION_DOT = .42268E-3
MEAN_MOTION_DDOT = 0

CCSDS_OMM_VERS = 2.0
CREATION_DATE  = 
ORIGINATOR     = 

OBJECT_NAME    = CREW DRAGON 12
OBJECT_ID      = 2026-031A
CENTER_NAME    = EARTH
REF_FRAME      = TEME
TIME_SYSTEM    = UTC
MEAN_ELEMENT_THEORY = SGP/SGP4

EPOCH          = 2026-02-24T20:43:31.560672
MEAN_MOTION    = 15.48271528
ECCENTRICITY   = .00083861
INCLINATION    = 51.6318
RA_OF_ASC_NODE = 135.7592
ARG_OF_PERICENTER = 130.0533
MEAN_ANOMALY   = 230.1192

EPHEMERIS_TYPE = 0
CLASSIFICATION_TYPE = U
NORAD_CAT_ID   = 67796
ELEMENT_SET_NO = 999
REV_AT_EPOCH   = 55431
BSTAR          = .18823051E-3
MEAN_MOTION_DOT = .9683E-4
MEAN_MOTION_DDOT = 0

